{"type": "FeatureCollection", "features": [ {"type": "Feature", "properties": {"norad_id": 66571, "name": "STARLINK-35836", "group": "last-30-days", "lat": 19.354563684124134, "lon": -22.208938626271287, "alt_km": 339.74104148397146, "timestamp": "2025-12-02T19:35:49.344064+00:00", "meta": {"OBJECT_NAME": "STARLINK-35836", "OBJECT_ID": "2025-268Q", "EPOCH": "2025-12-02T12:00:05.998752", "MEAN_MOTION": 15.76992867, "ECCENTRICITY": 0.0001513, "INCLINATION": 42.9978, "RA_OF_ASC_NODE": 181.8629, "ARG_OF_PERICENTER": 273.3855, "MEAN_ANOMALY": 239.2267, "EPHEMERIS_TYPE": 0, "CLASSIFICATION_TYPE": "U", "NORAD_CAT_ID": 66571, "ELEMENT_SET_NO": 999, "REV_AT_EPOCH": 302, "BSTAR": -0.010704, "MEAN_MOTION_DOT": -0.01567528, "MEAN_MOTION_DDOT": 0}, "tle": {"line1": "1 66571U 25268Q   25336.50006943 -.01567528  00000+0 -10704-1 0  9992", "line2": "2 66571  42.9978 181.8629 0001513 273.3855 239.2267 15.76992867  3020"}}, "geometry": {"type": "Point", "coordinates": [-22.208938626271287, 19.354563684124134]}}, {"type": "Feature", "properties": {"norad_id": 66572, "name": "STARLINK-35870", "group": "last-30-days", "lat": 18.072437212929746, "lon": -20.56646213833795, "alt_km": 339.8633540900955, "timestamp": "2025-12-02T19:35:49.344074+00:00", "meta": {"OBJECT_NAME": "STARLINK-35870", "OBJECT_ID": "2025-268R", "EPOCH": "2025-12-02T12:00:05.998752", "MEAN_MOTION": 15.7696256, "ECCENTRICITY": 0.0001679, "INCLINATION": 42.9978, "RA_OF_ASC_NODE": 181.8585, "ARG_OF_PERICENTER": 265.2789, "MEAN_ANOMALY": 249.3857, "EPHEMERIS_TYPE": 0, "CLASSIFICATION_TYPE": "U", "NORAD_CAT_ID": 66572, "ELEMENT_SET_NO": 999, "REV_AT_EPOCH": 302, "BSTAR": -0.010661, "MEAN_MOTION_DOT": -0.01560258, "MEAN_MOTION_DDOT": 0}, "tle": {"line1": "1 66572U 25268R   25336.50006943 -.01560258  00000+0 -10661-1 0  9998", "line2": "2 66572  42.9978 181.8585 0001679 265.2789 249.3857 15.76962560  3025"}}, "geometry": {"type": "Point", "coordinates": [-20.56646213833795, 18.072437212929746]}}, {"type": "Feature", "properties": {"norad_id": 66573, "name": "STARLINK-35650", "group": "last-30-days", "lat": 16.82323406133794, "lon": -19.007267641276425, "alt_km": 340.2602232491754, "timestamp": "2025-12-02T19:35:49.344086+00:00", "meta": {"OBJECT_NAME": "STARLINK-35650", "OBJECT_ID": "2025-268S", "EPOCH": "2025-12-02T12:00:05.998752", "MEAN_MOTION": 15.76895222, "ECCENTRICITY": 0.0001762, "INCLINATION": 42.9975, "RA_OF_ASC_NODE": 181.8527, "ARG_OF_PERICENTER": 266.1154, "MEAN_ANOMALY": 250.5737, "EPHEMERIS_TYPE": 0, "CLASSIFICATION_TYPE": "U", "NORAD_CAT_ID": 66573, "ELEMENT_SET_NO": 999, "REV_AT_EPOCH": 302, "BSTAR": -0.010718, "MEAN_MOTION_DOT": -0.01563382, "MEAN_MOTION_DDOT": 0}, "tle": {"line1": "1 66573U 25268S   25336.50006943 -.01563382  00000+0 -10718-1 0  9993", "line2": "2 66573  42.9975 181.8527 0001762 266.1154 250.5737 15.76895222  3029"}}, "geometry": {"type": "Point", "coordinates": [-19.007267641276425, 16.82323406133794]}}, {"type": "Feature", "properties": {"norad_id": 66574, "name": "STARLINK-35812", "group": "last-30-days", "lat": 15.568002458877492, "lon": -17.47440546717191, "alt_km": 340.2573085542308, "timestamp": "2025-12-02T19:35:49.344096+00:00", "meta": {"OBJECT_NAME": "STARLINK-35812", "OBJECT_ID": "2025-268T", "EPOCH": "2025-12-02T12:00:05.998752", "MEAN_MOTION": 15.76895272, "ECCENTRICITY": 0.0001327, "INCLINATION": 42.998, "RA_OF_ASC_NODE": 181.8476, "ARG_OF_PERICENTER": 258.7114, "MEAN_ANOMALY": 259.9312, "EPHEMERIS_TYPE": 0, "CLASSIFICATION_TYPE": "U", "NORAD_CAT_ID": 66574, "ELEMENT_SET_NO": 999, "REV_AT_EPOCH": 302, "BSTAR": -0.011066, "MEAN_MOTION_DOT": -0.01639258, "MEAN_MOTION_DDOT": 0}, "tle": {"line1": "1 66574U 25268T   25336.50006943 -.01639258  00000+0 -11066-1 0  9997", "line2": "2 66574  42.9980 181.8476 0001327 258.7114 259.9312 15.76895272  3026"}}, "geometry": {"type": "Point", "coordinates": [-17.47440546717191, 15.568002458877492]}}, {"type": "Feature", "properties": {"norad_id": 66575, "name": "STARLINK-35810", "group": "last-30-days", "lat": 14.292098681167575, "lon": -15.948536314048226, "alt_km": 340.9731883811155, "timestamp": "2025-12-02T19:35:49.344108+00:00", "meta": {"OBJECT_NAME": "STARLINK-35810", "OBJECT_ID": "2025-268U", "EPOCH": "2025-12-02T12:00:05.998752", "MEAN_MOTION": 15.76832915, "ECCENTRICITY": 0.0001596, "INCLINATION": 42.9976, "RA_OF_ASC_NODE": 181.8426, "ARG_OF_PERICENTER": 267.2552, "MEAN_ANOMALY": 253.4408, "EPHEMERIS_TYPE": 0, "CLASSIFICATION_TYPE": "U", "NORAD_CAT_ID": 66575, "ELEMENT_SET_NO": 999, "REV_AT_EPOCH": 302, "BSTAR": -0.011576, "MEAN_MOTION_DOT": -0.01702003, "MEAN_MOTION_DDOT": 0}, "tle": {"line1": "1 66575U 25268U   25336.50006943 -.01702003  00000+0 -11576-1 0  9993", "line2": "2 66575  42.9976 181.8426 0001596 267.2552 253.4408 15.76832915  3026"}}, "geometry": {"type": "Point", "coordinates": [-15.948536314048226, 14.292098681167575]}}, {"type": "Feature", "properties": {"norad_id": 66576, "name": "STARLINK-35814", "group": "last-30-days", "lat": 13.001613359672751, "lon": -14.434425643332542, "alt_km": 341.4398296565505, "timestamp": "2025-12-02T19:35:49.344118+00:00", "meta": {"OBJECT_NAME": "STARLINK-35814", "OBJECT_ID": "2025-268V", "EPOCH": "2025-12-02T12:00:05.998752", "MEAN_MOTION": 15.76780453, "ECCENTRICITY": 0.0001596, "INCLINATION": 42.9979, "RA_OF_ASC_NODE": 181.8371, "ARG_OF_PERICENTER": 272.1202, "MEAN_ANOMALY": 250.605, "EPHEMERIS_TYPE": 0, "CLASSIFICATION_TYPE": "U", "NORAD_CAT_ID": 66576, "ELEMENT_SET_NO": 999, "REV_AT_EPOCH": 302, "BSTAR": -0.011774, "MEAN_MOTION_DOT": -0.01724032, "MEAN_MOTION_DDOT": 0}, "tle": {"line1": "1 66576U 25268V   25336.50006943 -.01724032  00000+0 -11774-1 0  9990", "line2": "2 66576  42.9979 181.8371 0001596 272.1202 250.6050 15.76780453  3027"}}, "geometry": {"type": "Point", "coordinates": [-14.434425643332542, 13.001613359672751]}}, {"type": "Feature", "properties": {"norad_id": 66577, "name": "STARLINK-35815", "group": "last-30-days", "lat": 11.707872912850315, "lon": -12.942244231102018, "alt_km": 341.6653133607115, "timestamp": "2025-12-02T19:35:49.344128+00:00", "meta": {"OBJECT_NAME": "STARLINK-35815", "OBJECT_ID": "2025-268W", "EPOCH": "2025-12-02T12:00:05.998752", "MEAN_MOTION": 15.76700894, "ECCENTRICITY": 0.0001417, "INCLINATION": 42.9976, "RA_OF_ASC_NODE": 181.832, "ARG_OF_PERICENTER": 265.4114, "MEAN_ANOMALY": 259.3612, "EPHEMERIS_TYPE": 0, "CLASSIFICATION_TYPE": "U", "NORAD_CAT_ID": 66577, "ELEMENT_SET_NO": 999, "REV_AT_EPOCH": 302, "BSTAR": -0.01192, "MEAN_MOTION_DOT": -0.01737314, "MEAN_MOTION_DDOT": 0}, "tle": {"line1": "1 66577U 25268W   25336.50006943 -.01737314  00000+0 -11920-1 0  9991", "line2": "2 66577  42.9976 181.8320 0001417 265.4114 259.3612 15.76700894  3029"}}, "geometry": {"type": "Point", "coordinates": [-12.942244231102018, 11.707872912850315]}}, {"type": "Feature", "properties": {"norad_id": 66578, "name": "STARLINK-35743", "group": "last-30-days", "lat": 10.42093767527054, "lon": -11.480295807728881, "alt_km": 341.9704649121559, "timestamp": "2025-12-02T19:35:49.344138+00:00", "meta": {"OBJECT_NAME": "STARLINK-35743", "OBJECT_ID": "2025-268X", "EPOCH": "2025-12-02T12:00:05.998752", "MEAN_MOTION": 15.76678572, "ECCENTRICITY": 0.0001454, "INCLINATION": 42.9978, "RA_OF_ASC_NODE": 181.827, "ARG_OF_PERICENTER": 268.9241, "MEAN_ANOMALY": 257.8048, "EPHEMERIS_TYPE": 0, "CLASSIFICATION_TYPE": "U", "NORAD_CAT_ID": 66578, "ELEMENT_SET_NO": 999, "REV_AT_EPOCH": 302, "BSTAR": -0.011942, "MEAN_MOTION_DOT": -0.01738581, "MEAN_MOTION_DDOT": 0}, "tle": {"line1": "1 66578U 25268X   25336.50006943 -.01738581  00000+0 -11942-1 0  9993", "line2": "2 66578  42.9978 181.8270 0001454 268.9241 257.8048 15.76678572  3029"}}, "geometry": {"type": "Point", "coordinates": [-11.480295807728881, 10.42093767527054]}}, {"type": "Feature", "properties": {"norad_id": 66579, "name": "STARLINK-35868", "group": "last-30-days", "lat": 9.111014077806727, "lon": -10.012125161058501, "alt_km": 342.264905938815, "timestamp": "2025-12-02T19:35:49.344150+00:00", "meta": {"OBJECT_NAME": "STARLINK-35868", "OBJECT_ID": "2025-268Y", "EPOCH": "2025-12-02T12:00:05.998752", "MEAN_MOTION": 15.76613838, "ECCENTRICITY": 0.0001796, "INCLINATION": 42.9977, "RA_OF_ASC_NODE": 181.822, "ARG_OF_PERICENTER": 261.3106, "MEAN_ANOMALY": 267.4708, "EPHEMERIS_TYPE": 0, "CLASSIFICATION_TYPE": "U", "NORAD_CAT_ID": 66579, "ELEMENT_SET_NO": 999, "REV_AT_EPOCH": 302, "BSTAR": -0.012315, "MEAN_MOTION_DOT": -0.01781888, "MEAN_MOTION_DDOT": 0}, "tle": {"line1": "1 66579U 25268Y   25336.50006943 -.01781888  00000+0 -12315-1 0  9997", "line2": "2 66579  42.9977 181.8220 0001796 261.3106 267.4708 15.76613838  3024"}}, "geometry": {"type": "Point", "coordinates": [-10.012125161058501, 9.111014077806727]}}, {"type": "Feature", "properties": {"norad_id": 66580, "name": "STARLINK-35872", "group": "last-30-days", "lat": 7.817974740324424, "lon": -8.579675124584949, "alt_km": 342.3669074575855, "timestamp": "2025-12-02T19:35:49.344161+00:00", "meta": {"OBJECT_NAME": "STARLINK-35872", "OBJECT_ID": "2025-268Z", "EPOCH": "2025-12-02T12:00:05.998752", "MEAN_MOTION": 15.765663, "ECCENTRICITY": 0.0001732, "INCLINATION": 42.9975, "RA_OF_ASC_NODE": 181.8174, "ARG_OF_PERICENTER": 258.3926, "MEAN_ANOMALY": 272.3436, "EPHEMERIS_TYPE": 0, "CLASSIFICATION_TYPE": "U", "NORAD_CAT_ID": 66580, "ELEMENT_SET_NO": 999, "REV_AT_EPOCH": 302, "BSTAR": -0.012002, "MEAN_MOTION_DOT": -0.01738743, "MEAN_MOTION_DDOT": 0}, "tle": {"line1": "1 66580U 25268Z   25336.50006943 -.01738743  00000+0 -12002-1 0  9994", "line2": "2 66580  42.9975 181.8174 0001732 258.3926 272.3436 15.76566300  3022"}}, "geometry": {"type": "Point", "coordinates": [-8.579675124584949, 7.817974740324424]}}]}